<?xml version="1.0" encoding="UTF-8"?>
<ndm xmlns:xsi="http://www.w3.org/2001/XMLSchema-instance" xsi:noNamespaceSchemaLocation="https://sanaregistry.org/r/ndmxml_unqualified/ndmxml-2.0.0-master-2.0.xsd">
<omm id="CCSDS_OMM_VERS" version="2.0">
<header><CREATION_DATE/><ORIGINATOR/></header><body><segment><metadata><OBJECT_NAME>GLOBALSTAR M063</OBJECT_NAME><OBJECT_ID>2000-008A</OBJECT_ID><CENTER_NAME>EARTH</CENTER_NAME><REF_FRAME>TEME</REF_FRAME><TIME_SYSTEM>UTC</TIME_SYSTEM><MEAN_ELEMENT_THEORY>SGP4</MEAN_ELEMENT_THEORY></metadata><data><meanElements><EPOCH>2024-07-29T20:39:40.165920</EPOCH><MEAN_MOTION>11.86158992</MEAN_MOTION><ECCENTRICITY>.0004398</ECCENTRICITY><INCLINATION>51.9922</INCLINATION><RA_OF_ASC_NODE>240.4570</RA_OF_ASC_NODE><ARG_OF_PERICENTER>56.6836</ARG_OF_PERICENTER><MEAN_ANOMALY>114.6118</MEAN_ANOMALY></meanElements><tleParameters><EPHEMERIS_TYPE>0</EPHEMERIS_TYPE><CLASSIFICATION_TYPE>U</CLASSIFICATION_TYPE><NORAD_CAT_ID>26081</NORAD_CAT_ID><ELEMENT_SET_NO>999</ELEMENT_SET_NO><REV_AT_EPOCH>11932</REV_AT_EPOCH><BSTAR>.58288E-3</BSTAR><MEAN_MOTION_DOT>-.43E-6</MEAN_MOTION_DOT><MEAN_MOTION_DDOT>0</MEAN_MOTION_DDOT></tleParameters></data></segment></body></omm>
<omm id="CCSDS_OMM_VERS" version="2.0">
<header><CREATION_DATE/><ORIGINATOR/></header><body><segment><metadata><OBJECT_NAME>GLOBALSTAR M062</OBJECT_NAME><OBJECT_ID>2000-008B</OBJECT_ID><CENTER_NAME>EARTH</CENTER_NAME><REF_FRAME>TEME</REF_FRAME><TIME_SYSTEM>UTC</TIME_SYSTEM><MEAN_ELEMENT_THEORY>SGP4</MEAN_ELEMENT_THEORY></metadata><data><meanElements><EPOCH>2024-07-30T12:15:05.559264</EPOCH><MEAN_MOTION>12.43441274</MEAN_MOTION><ECCENTRICITY>.0007658</ECCENTRICITY><INCLINATION>51.9868</INCLINATION><RA_OF_ASC_NODE>321.7210</RA_OF_ASC_NODE><ARG_OF_PERICENTER>144.0375</ARG_OF_PERICENTER><MEAN_ANOMALY>272.8155</MEAN_ANOMALY></meanElements><tleParameters><EPHEMERIS_TYPE>0</EPHEMERIS_TYPE><CLASSIFICATION_TYPE>U</CLASSIFICATION_TYPE><NORAD_CAT_ID>26082</NORAD_CAT_ID><ELEMENT_SET_NO>999</ELEMENT_SET_NO><REV_AT_EPOCH>11910</REV_AT_EPOCH><BSTAR>.31384E-3</BSTAR><MEAN_MOTION_DOT>-.54E-6</MEAN_MOTION_DOT><MEAN_MOTION_DDOT>0</MEAN_MOTION_DDOT></tleParameters></data></segment></body></omm>
<omm id="CCSDS_OMM_VERS" version="2.0">
<header><CREATION_DATE/><ORIGINATOR/></header><body><segment><metadata><OBJECT_NAME>GLOBALSTAR M060</OBJECT_NAME><OBJECT_ID>2000-008C</OBJECT_ID><CENTER_NAME>EARTH</CENTER_NAME><REF_FRAME>TEME</REF_FRAME><TIME_SYSTEM>UTC</TIME_SYSTEM><MEAN_ELEMENT_THEORY>SGP4</MEAN_ELEMENT_THEORY></metadata><data><meanElements><EPOCH>2024-07-29T19:31:46.589952</EPOCH><MEAN_MOTION>12.17638151</MEAN_MOTION><ECCENTRICITY>.0003553</ECCENTRICITY><INCLINATION>51.9991</INCLINATION><RA_OF_ASC_NODE>238.1701</RA_OF_ASC_NODE><ARG_OF_PERICENTER>191.0674</ARG_OF_PERICENTER><MEAN_ANOMALY>340.1616</MEAN_ANOMALY></meanElements><tleParameters><EPHEMERIS_TYPE>0</EPHEMERIS_TYPE><CLASSIFICATION_TYPE>U</CLASSIFICATION_TYPE><NORAD_CAT_ID>26083</NORAD_CAT_ID><ELEMENT_SET_NO>999</ELEMENT_SET_NO><REV_AT_EPOCH>11309</REV_AT_EPOCH><BSTAR>.55172E-3</BSTAR><MEAN_MOTION_DOT>-.35E-6</MEAN_MOTION_DOT><MEAN_MOTION_DDOT>0</MEAN_MOTION_DDOT></tleParameters></data></segment></body></omm>
<omm id="CCSDS_OMM_VERS" version="2.0">
<header><CREATION_DATE/><ORIGINATOR/></header><body><segment><metadata><OBJECT_NAME>GLOBALSTAR M064</OBJECT_NAME><OBJECT_ID>2000-008D</OBJECT_ID><CENTER_NAME>EARTH</CENTER_NAME><REF_FRAME>TEME</REF_FRAME><TIME_SYSTEM>UTC</TIME_SYSTEM><MEAN_ELEMENT_THEORY>SGP4</MEAN_ELEMENT_THEORY></metadata><data><meanElements><EPOCH>2024-07-30T11:04:08.842944</EPOCH><MEAN_MOTION>11.88520525</MEAN_MOTION><ECCENTRICITY>.0002044</ECCENTRICITY><INCLINATION>52.0058</INCLINATION><RA_OF_ASC_NODE>341.4963</RA_OF_ASC_NODE><ARG_OF_PERICENTER>142.3666</ARG_OF_PERICENTER><MEAN_ANOMALY>217.7310</MEAN_ANOMALY></meanElements><tleParameters><EPHEMERIS_TYPE>0</EPHEMERIS_TYPE><CLASSIFICATION_TYPE>U</CLASSIFICATION_TYPE><NORAD_CAT_ID>26084</NORAD_CAT_ID><ELEMENT_SET_NO>999</ELEMENT_SET_NO><REV_AT_EPOCH>12895</REV_AT_EPOCH><BSTAR>.88493E-4</BSTAR><MEAN_MOTION_DOT>-.77E-6</MEAN_MOTION_DOT><MEAN_MOTION_DDOT>0</MEAN_MOTION_DDOT></tleParameters></data></segment></body></omm>
<omm id="CCSDS_OMM_VERS" version="2.0">
<header><CREATION_DATE/><ORIGINATOR/></header><body><segment><metadata><OBJECT_NAME>GLOBALSTAR M065</OBJECT_NAME><OBJECT_ID>2007-020A</OBJECT_ID><CENTER_NAME>EARTH</CENTER_NAME><REF_FRAME>TEME</REF_FRAME><TIME_SYSTEM>UTC</TIME_SYSTEM><MEAN_ELEMENT_THEORY>SGP4</MEAN_ELEMENT_THEORY></metadata><data><meanElements><EPOCH>2024-07-29T23:01:27.547104</EPOCH><MEAN_MOTION>12.61974990</MEAN_MOTION><ECCENTRICITY>.0009963</ECCENTRICITY><INCLINATION>51.9891</INCLINATION><RA_OF_ASC_NODE>127.0002</RA_OF_ASC_NODE><ARG_OF_PERICENTER>316.7555</ARG_OF_PERICENTER><MEAN_ANOMALY>123.2663</MEAN_ANOMALY></meanElements><tleParameters><EPHEMERIS_TYPE>0</EPHEMERIS_TYPE><CLASSIFICATION_TYPE>U</CLASSIFICATION_TYPE><NORAD_CAT_ID>31571</NORAD_CAT_ID><ELEMENT_SET_NO>999</ELEMENT_SET_NO><REV_AT_EPOCH>79272</REV_AT_EPOCH><BSTAR>.97364E-4</BSTAR><MEAN_MOTION_DOT>-.86E-6</MEAN_MOTION_DOT><MEAN_MOTION_DDOT>0</MEAN_MOTION_DDOT></tleParameters></data></segment></body></omm>
<omm id="CCSDS_OMM_VERS" version="2.0">
<header><CREATION_DATE/><ORIGINATOR/></header><body><segment><metadata><OBJECT_NAME>GLOBALSTAR M069</OBJECT_NAME><OBJECT_ID>2007-020C</OBJECT_ID><CENTER_NAME>EARTH</CENTER_NAME><REF_FRAME>TEME</REF_FRAME><TIME_SYSTEM>UTC</TIME_SYSTEM><MEAN_ELEMENT_THEORY>SGP4</MEAN_ELEMENT_THEORY></metadata><data><meanElements><EPOCH>2024-07-30T04:43:37.654176</EPOCH><MEAN_MOTION>12.62244535</MEAN_MOTION><ECCENTRICITY>.0000979</ECCENTRICITY><INCLINATION>51.9952</INCLINATION><RA_OF_ASC_NODE>82.0477</RA_OF_ASC_NODE><ARG_OF_PERICENTER>58.8679</ARG_OF_PERICENTER><MEAN_ANOMALY>93.5899</MEAN_ANOMALY></meanElements><tleParameters><EPHEMERIS_TYPE>0</EPHEMERIS_TYPE><CLASSIFICATION_TYPE>U</CLASSIFICATION_TYPE><NORAD_CAT_ID>31573</NORAD_CAT_ID><ELEMENT_SET_NO>999</ELEMENT_SET_NO><REV_AT_EPOCH>79381</REV_AT_EPOCH><BSTAR>-.13216E-4</BSTAR><MEAN_MOTION_DOT>-.106E-5</MEAN_MOTION_DOT><MEAN_MOTION_DDOT>0</MEAN_MOTION_DDOT></tleParameters></data></segment></body></omm>
<omm id="CCSDS_OMM_VERS" version="2.0">
<header><CREATION_DATE/><ORIGINATOR/></header><body><segment><metadata><OBJECT_NAME>GLOBALSTAR M072</OBJECT_NAME><OBJECT_ID>2007-020D</OBJECT_ID><CENTER_NAME>EARTH</CENTER_NAME><REF_FRAME>TEME</REF_FRAME><TIME_SYSTEM>UTC</TIME_SYSTEM><MEAN_ELEMENT_THEORY>SGP4</MEAN_ELEMENT_THEORY></metadata><data><meanElements><EPOCH>2024-07-29T22:13:18.377760</EPOCH><MEAN_MOTION>12.62260727</MEAN_MOTION><ECCENTRICITY>.0000581</ECCENTRICITY><INCLINATION>52.0063</INCLINATION><RA_OF_ASC_NODE>178.8515</RA_OF_ASC_NODE><ARG_OF_PERICENTER>331.4978</ARG_OF_PERICENTER><MEAN_ANOMALY>46.0385</MEAN_ANOMALY></meanElements><tleParameters><EPHEMERIS_TYPE>0</EPHEMERIS_TYPE><CLASSIFICATION_TYPE>U</CLASSIFICATION_TYPE><NORAD_CAT_ID>31574</NORAD_CAT_ID><ELEMENT_SET_NO>999</ELEMENT_SET_NO><REV_AT_EPOCH>79212</REV_AT_EPOCH><BSTAR>.22789E-3</BSTAR><MEAN_MOTION_DOT>-.63E-6</MEAN_MOTION_DOT><MEAN_MOTION_DDOT>0</MEAN_MOTION_DDOT></tleParameters></data></segment></body></omm>
<omm id="CCSDS_OMM_VERS" version="2.0">
<header><CREATION_DATE/><ORIGINATOR/></header><body><segment><metadata><OBJECT_NAME>GLOBALSTAR M071</OBJECT_NAME><OBJECT_ID>2007-020F</OBJECT_ID><CENTER_NAME>EARTH</CENTER_NAME><REF_FRAME>TEME</REF_FRAME><TIME_SYSTEM>UTC</TIME_SYSTEM><MEAN_ELEMENT_THEORY>SGP4</MEAN_ELEMENT_THEORY></metadata><data><meanElements><EPOCH>2024-07-29T22:56:05.006400</EPOCH><MEAN_MOTION>12.62271219</MEAN_MOTION><ECCENTRICITY>.0001227</ECCENTRICITY><INCLINATION>52.0069</INCLINATION><RA_OF_ASC_NODE>87.9842</RA_OF_ASC_NODE><ARG_OF_PERICENTER>78.3410</ARG_OF_PERICENTER><MEAN_ANOMALY>295.0909</MEAN_ANOMALY></meanElements><tleParameters><EPHEMERIS_TYPE>0</EPHEMERIS_TYPE><CLASSIFICATION_TYPE>U</CLASSIFICATION_TYPE><NORAD_CAT_ID>31576</NORAD_CAT_ID><ELEMENT_SET_NO>999</ELEMENT_SET_NO><REV_AT_EPOCH>45504</REV_AT_EPOCH><BSTAR>.21845E-3</BSTAR><MEAN_MOTION_DOT>-.65E-6</MEAN_MOTION_DOT><MEAN_MOTION_DDOT>0</MEAN_MOTION_DDOT></tleParameters></data></segment></body></omm>

</ndm>
