GLOBALSTAR M063         
1 26081U 00008A   24211.86088155 -.00000043  00000+0  58288-3 0  9997
2 26081  51.9922 240.4570 0004398  56.6836 114.6118 11.86158992119325
GLOBALSTAR M062         
1 26082U 00008B   24212.51048101 -.00000054  00000+0  31384-3 0  9998
2 26082  51.9868 321.7210 0007658 144.0375 272.8155 12.43441274119107
GLOBALSTAR M060         
1 26083U 00008C   24211.81373368 -.00000035  00000+0  55172-3 0  9997
2 26083  51.9991 238.1701 0003553 191.0674 340.1616 12.17638151113091
GLOBALSTAR M064         
1 26084U 00008D   24212.46121346 -.00000077  00000+0  88493-4 0  9996
2 26084  52.0058 341.4963 0002044 142.3666 217.7310 11.88520525128953
GLOBALSTAR M065         
1 31571U 07020A   24211.95934661 -.00000086  00000+0  97364-4 0  9996
2 31571  51.9891 127.0002 0009963 316.7555 123.2663 12.61974990792721
GLOBALSTAR M069         
1 31573U 07020C   24212.19696359 -.00000106  00000+0 -13216-4 0  9992
2 31573  51.9952  82.0477 0000979  58.8679  93.5899 12.62244535793813
GLOBALSTAR M072         
1 31574U 07020D   24211.92590715 -.00000063  00000+0  22789-3 0  9997
2 31574  52.0063 178.8515 0000581 331.4978  46.0385 12.62260727792124
GLOBALSTAR M071         
1 31576U 07020F   24211.95561350 -.00000065  00000+0  21845-3 0  9999
2 31576  52.0069  87.9842 0001227  78.3410 295.0909 12.62271219455044
